STARLINK-1480
1 45741U 20038M   26090.31759531  .00081880  00000+0  11843-2 0  9998
2 45741  53.0517 113.3254 0002161  68.5183 291.6057 15.55228918319834
